[
    {
        "Name": "MONASTIR",
        "NameAr": "المنستير",
        "Value": "MONASTIR",
        "Delegations": [
            {
                "Name": "MONASTIR (Zone Skanes)",
                "NameAr": "المنستير (منطقة سقانص)",
                "Value": "MONASTIR",
                "PostalCode": "5060",
                "Latitude": 35.7644,
                "Longitude": 10.8
            },
            {
                "Name": "SAHLINE (Sahline)",
                "NameAr": "الساحلين (الساحلين)",
                "Value": "SAHLINE",
                "PostalCode": "5012",
                "Latitude": 35.7197,
                "Longitude": 10.7594
            },
            {
                "Name": "KSIBET EL MEDIOUNI (Cite Ennadhour 2)",
                "NameAr": "قصيبة المديوني (حي الناظور 2)",
                "Value": "KSIBET EL MEDIOUNI",
                "PostalCode": "5031",
                "Latitude": 35.6667,
                "Longitude": 10.8167
            },
            {
                "Name": "SAHLINE (Cite Nouvelle)",
                "NameAr": "الساحلين (الحي الجديد)",
                "Value": "SAHLINE",
                "PostalCode": "5061",
                "Latitude": 35.7197,
                "Longitude": 10.7594
            },
            {
                "Name": "JEMMAL (Menzel Kamel)",
                "NameAr": "جمال (منزل كامل)",
                "Value": "JEMMAL",
                "PostalCode": "5013",
                "Latitude": 35.6,
                "Longitude": 10.75
            },
            {
                "Name": "KSIBET EL MEDIOUNI (Cite Ennadhour 3)",
                "NameAr": "قصيبة المديوني (حي الناظور 3)",
                "Value": "KSIBET EL MEDIOUNI",
                "PostalCode": "5031",
                "Latitude": 35.6667,
                "Longitude": 10.8167
            },
            {
                "Name": "SAHLINE (Sidi Ameur)",
                "NameAr": "الساحلين (سيدي عامر)",
                "Value": "SAHLINE",
                "PostalCode": "5061",
                "Latitude": 35.7197,
                "Longitude": 10.7594
            },
            {
                "Name": "BENI HASSEN (Beni Hassen)",
                "NameAr": "بني حسان (بني حسان)",
                "Value": "BENI HASSEN",
                "PostalCode": "5014",
                "Latitude": 35.5167,
                "Longitude": 10.75
            },
            {
                "Name": "KSIBET EL MEDIOUNI (Cite Essakia)",
                "NameAr": "قصيبة المديوني (حي الساقية)",
                "Value": "KSIBET EL MEDIOUNI",
                "PostalCode": "5031",
                "Latitude": 35.6667,
                "Longitude": 10.8167
            },
            {
                "Name": "BENI HASSEN (Amirat Hatem)",
                "NameAr": "بني حسان (عميرة حاتم)",
                "Value": "BENI HASSEN",
                "PostalCode": "5062",
                "Latitude": 35.5167,
                "Longitude": 10.75
            },
            {
                "Name": "BENI HASSEN (Cite Ettahrir)",
                "NameAr": "بني حسان (حي التحرير)",
                "Value": "BENI HASSEN",
                "PostalCode": "5014",
                "Latitude": 35.5167,
                "Longitude": 10.75
            },
            {
                "Name": "KSIBET EL MEDIOUNI (Cite Ezzayatine)",
                "NameAr": "قصيبة المديوني (حي الزياتين)",
                "Value": "KSIBET EL MEDIOUNI",
                "PostalCode": "5031",
                "Latitude": 35.6667,
                "Longitude": 10.8167
            },
            {
                "Name": "KSIBET EL MEDIOUNI (Bou Dher)",
                "NameAr": "قصيبة المديوني (بوذراع)",
                "Value": "KSIBET EL MEDIOUNI",
                "PostalCode": "5063",
                "Latitude": 35.6667,
                "Longitude": 10.8167
            },
            {
                "Name": "SAYADA LAMTA BOU HAJAR (Bou Hajar)",
                "NameAr": "صيادة لمطة بوحجر (بوحجر)",
                "Value": "SAYADA LAMTA BOU HAJAR",
                "PostalCode": "5015",
                "Latitude": 35.6719,
                "Longitude": 10.8725
            },
            {
                "Name": "KSIBET EL MEDIOUNI (Cite Oued Sekkal)",
                "NameAr": "قصيبة المديوني (حي وادي سقال)",
                "Value": "KSIBET EL MEDIOUNI",
                "PostalCode": "5031",
                "Latitude": 35.6667,
                "Longitude": 10.8167
            },
            {
                "Name": "KSIBET EL MEDIOUNI (Cite Populaire)",
                "NameAr": "قصيبة المديوني (الحي الشعبي)",
                "Value": "KSIBET EL MEDIOUNI",
                "PostalCode": "5031",
                "Latitude": 35.6667,
                "Longitude": 10.8167
            },
            {
                "Name": "MONASTIR (Monastir Aeroport)",
                "NameAr": "المنستير (مطار المنستير)",
                "Value": "MONASTIR",
                "PostalCode": "5065",
                "Latitude": 35.7581,
                "Longitude": 10.7547
            },
            {
                "Name": "SAYADA LAMTA BOU HAJAR (Cite Choobet Romman)",
                "NameAr": "صيادة لمطة بوحجر (حي شعبة رمان)",
                "Value": "SAYADA LAMTA BOU HAJAR",
                "PostalCode": "5015",
                "Latitude": 35.6719,
                "Longitude": 10.8725
            },
            {
                "Name": "KSIBET EL MEDIOUNI (Cite Rabbah)",
                "NameAr": "قصيبة المديوني (حي رباح)",
                "Value": "KSIBET EL MEDIOUNI",
                "PostalCode": "5031",
                "Latitude": 35.6667,
                "Longitude": 10.8167
            },
            {
                "Name": "MONASTIR (Zone Hoteliere)",
                "NameAr": "المنستير (المنطقة الفندقية)",
                "Value": "MONASTIR",
                "PostalCode": "5065",
                "Latitude": 35.7644,
                "Longitude": 10.8
            },
            {
                "Name": "SAYADA LAMTA BOU HAJAR (Cite Nouvelle)",
                "NameAr": "صيادة لمطة بوحجر (الحي الجديد)",
                "Value": "SAYADA LAMTA BOU HAJAR",
                "PostalCode": "5015",
                "Latitude": 35.6719,
                "Longitude": 10.8725
            },
            {
                "Name": "KSIBET EL MEDIOUNI (Cite Sidi El Mediouni)",
                "NameAr": "قصيبة المديوني (حي سيدي المديوني)",
                "Value": "KSIBET EL MEDIOUNI",
                "PostalCode": "5031",
                "Latitude": 35.6667,
                "Longitude": 10.8167
            },
            {
                "Name": "TEBOULBA (Soukrine)",
                "NameAr": "طبلبة (سكرين)",
                "Value": "TEBOULBA",
                "PostalCode": "5066",
                "Latitude": 35.6425,
                "Longitude": 10.9614
            },
            {
                "Name": "KSAR HELAL (Ksar Helal Riadh)",
                "NameAr": "قصر هلال (قصر هلال الرياض)",
                "Value": "KSAR HELAL",
                "PostalCode": "5016",
                "Latitude": 35.6439,
                "Longitude": 10.8906
            },
            {
                "Name": "KSIBET EL MEDIOUNI (Cite Snit)",
                "NameAr": "قصيبة المديوني (حي سنيت)",
                "Value": "KSIBET EL MEDIOUNI",
                "PostalCode": "5031",
                "Latitude": 35.6667,
                "Longitude": 10.8167
            },
            {
                "Name": "KSAR HELAL (Cite Bir Ali Hellal)",
                "NameAr": "قصر هلال (حي بئر علي هلال)",
                "Value": "KSAR HELAL",
                "PostalCode": "5070",
                "Latitude": 35.6439,
                "Longitude": 10.8906
            },
            {
                "Name": "JEMMAL (El Hedadra)",
                "NameAr": "جمال (الحدادرة)",
                "Value": "JEMMAL",
                "PostalCode": "5017",
                "Latitude": 35.6,
                "Longitude": 10.75
            },
            {
                "Name": "KSIBET EL MEDIOUNI (Cite Tarek Ibn Zied)",
                "NameAr": "قصيبة المديوني (حي طارق بن زياد)",
                "Value": "KSIBET EL MEDIOUNI",
                "PostalCode": "5031",
                "Latitude": 35.6667,
                "Longitude": 10.8167
            },
            {
                "Name": "KSAR HELAL (Cite Bir Soukra)",
                "NameAr": "قصر هلال (حي بئر سكرة)",
                "Value": "KSAR HELAL",
                "PostalCode": "5070",
                "Latitude": 35.6439,
                "Longitude": 10.8906
            },
            {
                "Name": "JEMMAL (Cite Commerciale 1)",
                "NameAr": "جمال (الحي التجاري 1)",
                "Value": "JEMMAL",
                "PostalCode": "5020",
                "Latitude": 35.6,
                "Longitude": 10.75
            },
            {
                "Name": "KSIBET EL MEDIOUNI (Ksibet El Mediouni)",
                "NameAr": "قصيبة المديوني (قصيبة المديوني)",
                "Value": "KSIBET EL MEDIOUNI",
                "PostalCode": "5031",
                "Latitude": 35.6667,
                "Longitude": 10.8167
            },
            {
                "Name": "KSAR HELAL (Cite Bit Mekka)",
                "NameAr": "قصر هلال (حي بيت مكة)",
                "Value": "KSAR HELAL",
                "PostalCode": "5070",
                "Latitude": 35.6439,
                "Longitude": 10.8906
            },
            {
                "Name": "JEMMAL (Cite Commerciale 2)",
                "NameAr": "جمال (الحي التجاري 2)",
                "Value": "JEMMAL",
                "PostalCode": "5020",
                "Latitude": 35.6,
                "Longitude": 10.75
            },
            {
                "Name": "BEMBLA (Mazdour)",
                "NameAr": "بمبلة (مزذور)",
                "Value": "BEMBLA",
                "PostalCode": "5032",
                "Latitude": 35.7,
                "Longitude": 10.8
            },
            {
                "Name": "KSAR HELAL (Cite Chougar)",
                "NameAr": "قصر هلال (حي شوڨر)",
                "Value": "KSAR HELAL",
                "PostalCode": "5070",
                "Latitude": 35.6439,
                "Longitude": 10.8906
            },
            {
                "Name": "JEMMAL (Cite El Amen)",
                "NameAr": "جمال (حي الأمان)",
                "Value": "JEMMAL",
                "PostalCode": "5020",
                "Latitude": 35.6,
                "Longitude": 10.75
            },
            {
                "Name": "MOKNINE (Cherahil)",
                "NameAr": "المنستير (شراحيل)",
                "Value": "MOKNINE",
                "PostalCode": "5034",
                "Latitude": 35.6311,
                "Longitude": 10.9011
            },
            {
                "Name": "KSAR HELAL (Cite Commerciale 1)",
                "NameAr": "قصر هلال (الحي التجاري 1)",
                "Value": "KSAR HELAL",
                "PostalCode": "5070",
                "Latitude": 35.6439,
                "Longitude": 10.8906
            },
            {
                "Name": "JEMMAL (Cite El Bassatine1)",
                "NameAr": "جمال (حي البساتين 1)",
                "Value": "JEMMAL",
                "PostalCode": "5020",
                "Latitude": 35.6,
                "Longitude": 10.75
            },
            {
                "Name": "MOKNINE (Cite El Bassatine)",
                "NameAr": "المنستير (حي البساتين)",
                "Value": "MOKNINE",
                "PostalCode": "5034",
                "Latitude": 35.6311,
                "Longitude": 10.9011
            },
            {
                "Name": "KSAR HELAL (Cite Dar Bumbla)",
                "NameAr": "قصر هلال (حي دار بومبلة)",
                "Value": "KSAR HELAL",
                "PostalCode": "5070",
                "Latitude": 35.6439,
                "Longitude": 10.8906
            },
            {
                "Name": "JEMMAL (Cite El Bassatine2)",
                "NameAr": "جمال (حي البساتين 2)",
                "Value": "JEMMAL",
                "PostalCode": "5020",
                "Latitude": 35.6,
                "Longitude": 10.75
            },
            {
                "Name": "MOKNINE (Cite El Omrane)",
                "NameAr": "المنستير (حي العمران)",
                "Value": "MOKNINE",
                "PostalCode": "5034",
                "Latitude": 35.6311,
                "Longitude": 10.9011
            },
            {
                "Name": "KSAR HELAL (Cite De La Municipalite)",
                "NameAr": "قصر هلال (حي البلدية)",
                "Value": "KSAR HELAL",
                "PostalCode": "5070",
                "Latitude": 35.6439,
                "Longitude": 10.8906
            },
            {
                "Name": "JEMMAL (Cite El Fateh)",
                "NameAr": "جمال (حي الفاتح)",
                "Value": "JEMMAL",
                "PostalCode": "5020",
                "Latitude": 35.6,
                "Longitude": 10.75
            },
            {
                "Name": "MOKNINE (Cite Ennasr)",
                "NameAr": "المنستير (حي النصر)",
                "Value": "MOKNINE",
                "PostalCode": "5034",
                "Latitude": 35.6311,
                "Longitude": 10.9011
            },
            {
                "Name": "KSAR HELAL (Cite Ejjebsa)",
                "NameAr": "قصر هلال (حي الجبسة)",
                "Value": "KSAR HELAL",
                "PostalCode": "5070",
                "Latitude": 35.6439,
                "Longitude": 10.8906
            },
            {
                "Name": "JEMMAL (Cite El Intilaka)",
                "NameAr": "جمال (حي الإنطلاقة)",
                "Value": "JEMMAL",
                "PostalCode": "5020",
                "Latitude": 35.6,
                "Longitude": 10.75
            },
            {
                "Name": "MOKNINE (Cite Ezzayatine)",
                "NameAr": "المنستير (حي الزياتين)",
                "Value": "MOKNINE",
                "PostalCode": "5034",
                "Latitude": 35.6311,
                "Longitude": 10.9011
            },
            {
                "Name": "KSAR HELAL (Cite El Gariaa)",
                "NameAr": "قصر هلال (حي القريعة)",
                "Value": "KSAR HELAL",
                "PostalCode": "5070",
                "Latitude": 35.6439,
                "Longitude": 10.8906
            },
            {
                "Name": "JEMMAL (Cite El Izdihar)",
                "NameAr": "جمال (حي الإزدهار)",
                "Value": "JEMMAL",
                "PostalCode": "5020",
                "Latitude": 35.6,
                "Longitude": 10.75
            },
            {
                "Name": "MOKNINE (Cite Populaire)",
                "NameAr": "المنستير (الحي الشعبي)",
                "Value": "MOKNINE",
                "PostalCode": "5034",
                "Latitude": 35.6311,
                "Longitude": 10.9011
            },
            {
                "Name": "KSAR HELAL (Cite El Maglouba)",
                "NameAr": "قصر هلال (حي المقلوبة)",
                "Value": "KSAR HELAL",
                "PostalCode": "5070",
                "Latitude": 35.6439,
                "Longitude": 10.8906
            },
            {
                "Name": "JEMMAL (Cite El Khadhra)",
                "NameAr": "جمال (حي الخضراء)",
                "Value": "JEMMAL",
                "PostalCode": "5020",
                "Latitude": 35.6,
                "Longitude": 10.75
            },
            {
                "Name": "MOKNINE (Cite Trabelsia)",
                "NameAr": "المنستير (حي الطرابلسية)",
                "Value": "MOKNINE",
                "PostalCode": "5034",
                "Latitude": 35.6311,
                "Longitude": 10.9011
            },
            {
                "Name": "KSAR HELAL (Cite Erriadh 1)",
                "NameAr": "قصر هلال (حي الرياض 1)",
                "Value": "KSAR HELAL",
                "PostalCode": "5070",
                "Latitude": 35.6439,
                "Longitude": 10.8906
            },
            {
                "Name": "JEMMAL (Cite El Manar 1)",
                "NameAr": "جمال (حي المنار 1)",
                "Value": "JEMMAL",
                "PostalCode": "5020",
                "Latitude": 35.6,
                "Longitude": 10.75
            },
            {
                "Name": "MOKNINE (Cite Zraraa)",
                "NameAr": "المنستير (حي زرارة)",
                "Value": "MOKNINE",
                "PostalCode": "5034",
                "Latitude": 35.6311,
                "Longitude": 10.9011
            },
            {
                "Name": "KSAR HELAL (Cite Erriadh 2)",
                "NameAr": "قصر هلال (حي الرياض 2)",
                "Value": "KSAR HELAL",
                "PostalCode": "5070",
                "Latitude": 35.6439,
                "Longitude": 10.8906
            },
            {
                "Name": "JEMMAL (Cite El Manar 2)",
                "NameAr": "جمال (حي المنار 2)",
                "Value": "JEMMAL",
                "PostalCode": "5020",
                "Latitude": 35.6,
                "Longitude": 10.75
            },
            {
                "Name": "SAYADA LAMTA BOU HAJAR (Cite Gourraia)",
                "NameAr": "صيادة لمطة بوحجر (حي القرايعة)",
                "Value": "SAYADA LAMTA BOU HAJAR",
                "PostalCode": "5035",
                "Latitude": 35.6719,
                "Longitude": 10.8725
            },
            {
                "Name": "KSAR HELAL (Cite Erriadh 3)",
                "NameAr": "قصر هلال (حي الرياض 3)",
                "Value": "KSAR HELAL",
                "PostalCode": "5070",
                "Latitude": 35.6439,
                "Longitude": 10.8906
            },
            {
                "Name": "JEMMAL (Cite El Wifak)",
                "NameAr": "جمال (حي الوفاق)",
                "Value": "JEMMAL",
                "PostalCode": "5020",
                "Latitude": 35.6,
                "Longitude": 10.75
            },
            {
                "Name": "KSAR HELAL (Cite Industrielle)",
                "NameAr": "قصر هلال (الحي الصناعي)",
                "Value": "KSAR HELAL",
                "PostalCode": "5070",
                "Latitude": 35.6439,
                "Longitude": 10.8906
            },
            {
                "Name": "JEMMAL (Cite El Yasmine)",
                "NameAr": "جمال (حي الياسمين)",
                "Value": "JEMMAL",
                "PostalCode": "5020",
                "Latitude": 35.6,
                "Longitude": 10.75
            },
            {
                "Name": "SAYADA LAMTA BOU HAJAR (Cite Sidi Ammar)",
                "NameAr": "صيادة لمطة بوحجر (حي سيدي عمار)",
                "Value": "SAYADA LAMTA BOU HAJAR",
                "PostalCode": "5035",
                "Latitude": 35.6719,
                "Longitude": 10.8725
            },
            {
                "Name": "KSAR HELAL (Cite Moueheddine)",
                "NameAr": "قصر هلال (حي الموحدين)",
                "Value": "KSAR HELAL",
                "PostalCode": "5070",
                "Latitude": 35.6439,
                "Longitude": 10.8906
            },
            {
                "Name": "JEMMAL (Cite Ennasr)",
                "NameAr": "جمال (حي النصر)",
                "Value": "JEMMAL",
                "PostalCode": "5020",
                "Latitude": 35.6,
                "Longitude": 10.75
            },
            {
                "Name": "SAYADA LAMTA BOU HAJAR (Sayada)",
                "NameAr": "صيادة لمطة بوحجر (صيادة)",
                "Value": "SAYADA LAMTA BOU HAJAR",
                "PostalCode": "5035",
                "Latitude": 35.6719,
                "Longitude": 10.8725
            },
            {
                "Name": "KSAR HELAL (Cite Oued Kacem Et El Ourami)",
                "NameAr": "قصر هلال (حي وادي قاسم والورامي)",
                "Value": "KSAR HELAL",
                "PostalCode": "5070",
                "Latitude": 35.6439,
                "Longitude": 10.8906
            },
            {
                "Name": "JEMMAL (Cite Ennour)",
                "NameAr": "جمال (حي النور)",
                "Value": "JEMMAL",
                "PostalCode": "5020",
                "Latitude": 35.6,
                "Longitude": 10.75
            },
            {
                "Name": "SAYADA LAMTA BOU HAJAR (Sidi Abdessalem)",
                "NameAr": "صيادة لمطة بوحجر (سيدي عبد السلام)",
                "Value": "SAYADA LAMTA BOU HAJAR",
                "PostalCode": "5035",
                "Latitude": 35.6719,
                "Longitude": 10.8725
            },
            {
                "Name": "KSAR HELAL (Cite Sanit Zaag Et Charef)",
                "NameAr": "قصر هلال (حي سانية زعق والشرف)",
                "Value": "KSAR HELAL",
                "PostalCode": "5070",
                "Latitude": 35.6439,
                "Longitude": 10.8906
            },
            {
                "Name": "JEMMAL (Cite Ennouzha)",
                "NameAr": "جمال (حي النزهة)",
                "Value": "JEMMAL",
                "PostalCode": "5020",
                "Latitude": 35.6,
                "Longitude": 10.75
            },
            {
                "Name": "BEMBLA (Menzel Harb)",
                "NameAr": "بمبلة (منزل حرب)",
                "Value": "BEMBLA",
                "PostalCode": "5036",
                "Latitude": 35.7,
                "Longitude": 10.8
            },
            {
                "Name": "KSAR HELAL (Ksar Helal)",
                "NameAr": "قصر هلال (قصر هلال)",
                "Value": "KSAR HELAL",
                "PostalCode": "5070",
                "Latitude": 35.6439,
                "Longitude": 10.8906
            },
            {
                "Name": "JEMMAL (Cite Erriadh)",
                "NameAr": "جمال (حي الرياض)",
                "Value": "JEMMAL",
                "PostalCode": "5020",
                "Latitude": 35.6,
                "Longitude": 10.75
            },
            {
                "Name": "ZERAMDINE (Cite El Kods)",
                "NameAr": "زرمدين (حي القدس)",
                "Value": "ZERAMDINE",
                "PostalCode": "5040",
                "Latitude": 35.5803,
                "Longitude": 10.7806
            },
            {
                "Name": "MOKNINE (Amirat El Hojjej)",
                "NameAr": "المنستير (عميرة الحجاج)",
                "Value": "MOKNINE",
                "PostalCode": "5071",
                "Latitude": 35.6311,
                "Longitude": 10.9011
            },
            {
                "Name": "JEMMAL (Cite Essalem)",
                "NameAr": "جمال (حي السلام)",
                "Value": "JEMMAL",
                "PostalCode": "5020",
                "Latitude": 35.6,
                "Longitude": 10.75
            },
            {
                "Name": "ZERAMDINE (Cite El Manar)",
                "NameAr": "زرمدين (حي المنار)",
                "Value": "ZERAMDINE",
                "PostalCode": "5040",
                "Latitude": 35.5803,
                "Longitude": 10.7806
            },
            {
                "Name": "BEMBLA (Menara)",
                "NameAr": "بمبلة (المنارة)",
                "Value": "BEMBLA",
                "PostalCode": "5076",
                "Latitude": 35.7,
                "Longitude": 10.8
            },
            {
                "Name": "JEMMAL (Cite Ettaamir)",
                "NameAr": "جمال (حي التعمير)",
                "Value": "JEMMAL",
                "PostalCode": "5020",
                "Latitude": 35.6,
                "Longitude": 10.75
            },
            {
                "Name": "ZERAMDINE (Zeramdine)",
                "NameAr": "زرمدين (زرمدين)",
                "Value": "ZERAMDINE",
                "PostalCode": "5040",
                "Latitude": 35.5803,
                "Longitude": 10.7806
            },
            {
                "Name": "MONASTIR (Monastir Gare)",
                "NameAr": "المنستير (المنستير المحطة)",
                "Value": "MONASTIR",
                "PostalCode": "5079",
                "Latitude": 35.7644,
                "Longitude": 10.8
            },
            {
                "Name": "JEMMAL (Cite Ettadhamen)",
                "NameAr": "جمال (حي التضامن)",
                "Value": "JEMMAL",
                "PostalCode": "5020",
                "Latitude": 35.6,
                "Longitude": 10.75
            },
            {
                "Name": "OUERDANINE (Bou Othmane)",
                "NameAr": "الوردانين (بوعثمان)",
                "Value": "OUERDANINE",
                "PostalCode": "5052",
                "Latitude": 35.6764,
                "Longitude": 10.7281
            },
            {
                "Name": "TEBOULBA (Cite Bou Drisse)",
                "NameAr": "طبلبة (حي بودريس)",
                "Value": "TEBOULBA",
                "PostalCode": "5080",
                "Latitude": 35.6425,
                "Longitude": 10.9614
            },
            {
                "Name": "JEMMAL (Cite Ezzahra)",
                "NameAr": "جمال (حي الزهراء)",
                "Value": "JEMMAL",
                "PostalCode": "5020",
                "Latitude": 35.6,
                "Longitude": 10.75
            },
            {
                "Name": "MOKNINE (Amirat El Fehoul)",
                "NameAr": "المنستير (عميرة الفحول)",
                "Value": "MOKNINE",
                "PostalCode": "5053",
                "Latitude": 35.6311,
                "Longitude": 10.9011
            },
            {
                "Name": "TEBOULBA (Cite El Fadhline)",
                "NameAr": "طبلبة (حي الفاضلين)",
                "Value": "TEBOULBA",
                "PostalCode": "5080",
                "Latitude": 35.6425,
                "Longitude": 10.9614
            },
            {
                "Name": "JEMMAL (Cite Ezzouhour 1)",
                "NameAr": "جمال (حي الزهور 1)",
                "Value": "JEMMAL",
                "PostalCode": "5020",
                "Latitude": 35.6,
                "Longitude": 10.75
            },
            {
                "Name": "MOKNINE (Amirat Touazra)",
                "NameAr": "المنستير (عميرة التوازرة)",
                "Value": "MOKNINE",
                "PostalCode": "5054",
                "Latitude": 35.6311,
                "Longitude": 10.9011
            },
            {
                "Name": "TEBOULBA (Teboulba)",
                "NameAr": "طبلبة (طبلبة)",
                "Value": "TEBOULBA",
                "PostalCode": "5080",
                "Latitude": 35.6425,
                "Longitude": 10.9614
            },
            {
                "Name": "JEMMAL (Cite Ezzouhour 2)",
                "NameAr": "جمال (حي الزهور 2)",
                "Value": "JEMMAL",
                "PostalCode": "5020",
                "Latitude": 35.6,
                "Longitude": 10.75
            },
            {
                "Name": "MONASTIR (Cite El Bassatine)",
                "NameAr": "المنستير (حي البساتين)",
                "Value": "MONASTIR",
                "PostalCode": "5089",
                "Latitude": 35.7644,
                "Longitude": 10.8
            },
            {
                "Name": "BEKALTA (Baghdadi)",
                "NameAr": "البقالطة (البغدادي)",
                "Value": "BEKALTA",
                "PostalCode": "5090",
                "Latitude": 35.6167,
                "Longitude": 11.0333
            },
            {
                "Name": "JEMMAL (Cite Independance)",
                "NameAr": "جمال (حي الإستقلال)",
                "Value": "JEMMAL",
                "PostalCode": "5020",
                "Latitude": 35.6,
                "Longitude": 10.75
            },
            {
                "Name": "BEKALTA (Bekalta)",
                "NameAr": "البقالطة (البقالطة)",
                "Value": "BEKALTA",
                "PostalCode": "5090",
                "Latitude": 35.6167,
                "Longitude": 11.0333
            },
            {
                "Name": "JEMMAL (Cite Jaouhara)",
                "NameAr": "جمال (حي جوهرة)",
                "Value": "JEMMAL",
                "PostalCode": "5020",
                "Latitude": 35.6,
                "Longitude": 10.75
            },
            {
                "Name": "BEKALTA (Cite El Bassatine)",
                "NameAr": "البقالطة (حي البساتين)",
                "Value": "BEKALTA",
                "PostalCode": "5090",
                "Latitude": 35.6167,
                "Longitude": 11.0333
            },
            {
                "Name": "JEMMAL (Cite Jardins)",
                "NameAr": "جمال (حي الحدائق)",
                "Value": "JEMMAL",
                "PostalCode": "5020",
                "Latitude": 35.6,
                "Longitude": 10.75
            },
            {
                "Name": "BEKALTA (Cite El Izdihar)",
                "NameAr": "البقالطة (حي الإزدهار)",
                "Value": "BEKALTA",
                "PostalCode": "5090",
                "Latitude": 35.6167,
                "Longitude": 11.0333
            },
            {
                "Name": "JEMMAL (Cite Operations Du Sahel)",
                "NameAr": "جمال (حي عمليات الساحل)",
                "Value": "JEMMAL",
                "PostalCode": "5020",
                "Latitude": 35.6,
                "Longitude": 10.75
            },
            {
                "Name": "BEKALTA (Cite Nouvelle)",
                "NameAr": "البقالطة (الحي الجديد)",
                "Value": "BEKALTA",
                "PostalCode": "5090",
                "Latitude": 35.6167,
                "Longitude": 11.0333
            },
            {
                "Name": "JEMMAL (Cite Sidi Messaoud)",
                "NameAr": "جمال (حي سيدي مسعود)",
                "Value": "JEMMAL",
                "PostalCode": "5020",
                "Latitude": 35.6,
                "Longitude": 10.75
            },
            {
                "Name": "BEKALTA (Guealla)",
                "NameAr": "البقالطة (الڨلالة)",
                "Value": "BEKALTA",
                "PostalCode": "5090",
                "Latitude": 35.6167,
                "Longitude": 11.0333
            },
            {
                "Name": "JEMMAL (Jemmal)",
                "NameAr": "جمال (جمال)",
                "Value": "JEMMAL",
                "PostalCode": "5020",
                "Latitude": 35.6,
                "Longitude": 10.75
            },
            {
                "Name": "BEKALTA (Ouled Hedda)",
                "NameAr": "البقالطة (أولاد هدى)",
                "Value": "BEKALTA",
                "PostalCode": "5090",
                "Latitude": 35.6167,
                "Longitude": 11.0333
            },
            {
                "Name": "BEMBLA (Bembla)",
                "NameAr": "بمبلة (بمبلة)",
                "Value": "BEMBLA",
                "PostalCode": "5021",
                "Latitude": 35.7,
                "Longitude": 10.8
            },
            {
                "Name": "BEKALTA (Ouled Issa)",
                "NameAr": "البقالطة (أولاد عيسى)",
                "Value": "BEKALTA",
                "PostalCode": "5090",
                "Latitude": 35.6167,
                "Longitude": 11.0333
            },
            {
                "Name": "BEMBLA (Cite El Khadhra)",
                "NameAr": "بمبلة (حي الخضراء)",
                "Value": "BEMBLA",
                "PostalCode": "5021",
                "Latitude": 35.7,
                "Longitude": 10.8
            },
            {
                "Name": "BEKALTA (Ouled Touibi)",
                "NameAr": "البقالطة (أولاد التويبي)",
                "Value": "BEKALTA",
                "PostalCode": "5090",
                "Latitude": 35.6167,
                "Longitude": 11.0333
            },
            {
                "Name": "BEMBLA (Cite El Mandra)",
                "NameAr": "بمبلة (حي المندرة)",
                "Value": "BEMBLA",
                "PostalCode": "5021",
                "Latitude": 35.7,
                "Longitude": 10.8
            },
            {
                "Name": "BEKALTA (Zebid)",
                "NameAr": "البقالطة (زبيد)",
                "Value": "BEKALTA",
                "PostalCode": "5090",
                "Latitude": 35.6167,
                "Longitude": 11.0333
            },
            {
                "Name": "BEMBLA (Cite Ennabka)",
                "NameAr": "بمبلة (حي النبكة)",
                "Value": "BEMBLA",
                "PostalCode": "5021",
                "Latitude": 35.7,
                "Longitude": 10.8
            },
            {
                "Name": "BEKALTA (Charaf)",
                "NameAr": "البقالطة (الشرف)",
                "Value": "BEKALTA",
                "PostalCode": "5091",
                "Latitude": 35.6167,
                "Longitude": 11.0333
            },
            {
                "Name": "BEMBLA (Cite Populaire)",
                "NameAr": "بمبلة (الحي الشعبي)",
                "Value": "BEMBLA",
                "PostalCode": "5021",
                "Latitude": 35.7,
                "Longitude": 10.8
            },
            {
                "Name": "BEKALTA (El Behira)",
                "NameAr": "البقالطة (البحيرة)",
                "Value": "BEKALTA",
                "PostalCode": "5092",
                "Latitude": 35.6167,
                "Longitude": 11.0333
            },
            {
                "Name": "BEMBLA (Cite 2 Mars)",
                "NameAr": "بمبلة (حي 2 مارس)",
                "Value": "BEMBLA",
                "PostalCode": "5022",
                "Latitude": 35.7,
                "Longitude": 10.8
            },
            {
                "Name": "SAYADA LAMTA BOU HAJAR (Cite Bir El Ayeb)",
                "NameAr": "صيادة لمطة بوحجر (حي بئر العايب)",
                "Value": "SAYADA LAMTA BOU HAJAR",
                "PostalCode": "5099",
                "Latitude": 35.6719,
                "Longitude": 10.8725
            },
            {
                "Name": "BEMBLA (Cite El Jazia)",
                "NameAr": "بمبلة (حي الجازية)",
                "Value": "BEMBLA",
                "PostalCode": "5022",
                "Latitude": 35.7,
                "Longitude": 10.8
            },
            {
                "Name": "SAYADA LAMTA BOU HAJAR (Cite Ennadhour)",
                "NameAr": "صيادة لمطة بوحجر (حي الناظور)",
                "Value": "SAYADA LAMTA BOU HAJAR",
                "PostalCode": "5099",
                "Latitude": 35.6719,
                "Longitude": 10.8725
            },
            {
                "Name": "BEMBLA (Cite Souihria)",
                "NameAr": "بمبلة (حي السويهرية)",
                "Value": "BEMBLA",
                "PostalCode": "5022",
                "Latitude": 35.7,
                "Longitude": 10.8
            },
            {
                "Name": "SAYADA LAMTA BOU HAJAR (Lamta)",
                "NameAr": "صيادة لمطة بوحجر (لمطة)",
                "Value": "SAYADA LAMTA BOU HAJAR",
                "PostalCode": "5099",
                "Latitude": 35.6719,
                "Longitude": 10.8725
            },
            {
                "Name": "BEMBLA (Menzel Ennour)",
                "NameAr": "بمبلة (منزل النور)",
                "Value": "BEMBLA",
                "PostalCode": "5022",
                "Latitude": 35.7,
                "Longitude": 10.8
            },
            {
                "Name": "MOKNINE (Moknine El Jadida)",
                "NameAr": "المنستير (المكنين الجديدة)",
                "Value": "MOKNINE",
                "PostalCode": "5051",
                "Latitude": 35.6311,
                "Longitude": 10.9011
            },
            {
                "Name": "KSIBET EL MEDIOUNI (Touza)",
                "NameAr": "قصيبة المديوني (طوزة)",
                "Value": "KSIBET EL MEDIOUNI",
                "PostalCode": "5023",
                "Latitude": 35.6667,
                "Longitude": 10.8167
            },
            {
                "Name": "MOKNINE (Menzel Fersi)",
                "NameAr": "المنستير (منزل فارسي)",
                "Value": "MOKNINE",
                "PostalCode": "5024",
                "Latitude": 35.6311,
                "Longitude": 10.9011
            },
            {
                "Name": "KSIBET EL MEDIOUNI (Bennane)",
                "NameAr": "قصيبة المديوني (بنان)",
                "Value": "KSIBET EL MEDIOUNI",
                "PostalCode": "5025",
                "Latitude": 35.6667,
                "Longitude": 10.8167
            },
            {
                "Name": "KSIBET EL MEDIOUNI (Cite Air Nouvelle)",
                "NameAr": "قصيبة المديوني (حي الهواء الجديد)",
                "Value": "KSIBET EL MEDIOUNI",
                "PostalCode": "5025",
                "Latitude": 35.6667,
                "Longitude": 10.8167
            },
            {
                "Name": "MONASTIR (Cite Bir Hlou)",
                "NameAr": "المنستير (حي بئر حلو)",
                "Value": "MONASTIR",
                "PostalCode": "5060",
                "Latitude": 35.7644,
                "Longitude": 10.8
            },
            {
                "Name": "KSIBET EL MEDIOUNI (Cite El Bassatine)",
                "NameAr": "قصيبة المديوني (حي البساتين)",
                "Value": "KSIBET EL MEDIOUNI",
                "PostalCode": "5025",
                "Latitude": 35.6667,
                "Longitude": 10.8167
            },
            {
                "Name": "MONASTIR (Cite Cheraka)",
                "NameAr": "المنستير (حي الشراكة)",
                "Value": "MONASTIR",
                "PostalCode": "5060",
                "Latitude": 35.7644,
                "Longitude": 10.8
            },
            {
                "Name": "KSIBET EL MEDIOUNI (Cite El Intilaka)",
                "NameAr": "قصيبة المديوني (حي الإنطلاقة)",
                "Value": "KSIBET EL MEDIOUNI",
                "PostalCode": "5025",
                "Latitude": 35.6667,
                "Longitude": 10.8167
            },
            {
                "Name": "MONASTIR (Cite Cnrps)",
                "NameAr": "المنستير (حي الصندوق الوطني للتقاعد والحيطة الإجتماعية)",
                "Value": "MONASTIR",
                "PostalCode": "5060",
                "Latitude": 35.7644,
                "Longitude": 10.8
            },
            {
                "Name": "MONASTIR (Monastir)",
                "NameAr": "المنستير (المنستير)",
                "Value": "MONASTIR",
                "PostalCode": "5000",
                "Latitude": 35.7644,
                "Longitude": 10.8
            },
            {
                "Name": "BENI HASSEN (Ghenada)",
                "NameAr": "بني حسان (غنادة)",
                "Value": "BENI HASSEN",
                "PostalCode": "5026",
                "Latitude": 35.5167,
                "Longitude": 10.75
            },
            {
                "Name": "MONASTIR (Cite El Amel)",
                "NameAr": "المنستير (حي الأمل)",
                "Value": "MONASTIR",
                "PostalCode": "5060",
                "Latitude": 35.7644,
                "Longitude": 10.8
            },
            {
                "Name": "OUERDANINE (Cite 22 Janvier)",
                "NameAr": "الوردانين (حي 22 جانفي)",
                "Value": "OUERDANINE",
                "PostalCode": "5010",
                "Latitude": 35.6764,
                "Longitude": 10.7281
            },
            {
                "Name": "JEMMAL (Ettiayra)",
                "NameAr": "جمال (الطيارة)",
                "Value": "JEMMAL",
                "PostalCode": "5027",
                "Latitude": 35.6,
                "Longitude": 10.75
            },
            {
                "Name": "MONASTIR (Cite El Faouz)",
                "NameAr": "المنستير (حي الفوز)",
                "Value": "MONASTIR",
                "PostalCode": "5060",
                "Latitude": 35.7644,
                "Longitude": 10.8
            },
            {
                "Name": "OUERDANINE (Cite 7 Novembre)",
                "NameAr": "الوردانين (حي 7 نوفمبر)",
                "Value": "OUERDANINE",
                "PostalCode": "5010",
                "Latitude": 35.6764,
                "Longitude": 10.7281
            },
            {
                "Name": "MONASTIR (Cite El Farik)",
                "NameAr": "المنستير (حي الفريق)",
                "Value": "MONASTIR",
                "PostalCode": "5060",
                "Latitude": 35.7644,
                "Longitude": 10.8
            },
            {
                "Name": "OUERDANINE (Cite Abdelaziz Thaalbi)",
                "NameAr": "الوردانين (حي عبد العزيز الثعالبي)",
                "Value": "OUERDANINE",
                "PostalCode": "5010",
                "Latitude": 35.6764,
                "Longitude": 10.7281
            },
            {
                "Name": "JEMMAL (Cite Ettahrir)",
                "NameAr": "جمال (حي التحرير)",
                "Value": "JEMMAL",
                "PostalCode": "5028",
                "Latitude": 35.6,
                "Longitude": 10.75
            },
            {
                "Name": "MONASTIR (Cite El Mzali)",
                "NameAr": "المنستير (حي المزالي)",
                "Value": "MONASTIR",
                "PostalCode": "5060",
                "Latitude": 35.7644,
                "Longitude": 10.8
            },
            {
                "Name": "OUERDANINE (Cite Ennouhoudh)",
                "NameAr": "الوردانين (حي النهوض)",
                "Value": "OUERDANINE",
                "PostalCode": "5010",
                "Latitude": 35.6764,
                "Longitude": 10.7281
            },
            {
                "Name": "JEMMAL (Zaouiet Kontech)",
                "NameAr": "جمال (زاوية قنطش)",
                "Value": "JEMMAL",
                "PostalCode": "5028",
                "Latitude": 35.6,
                "Longitude": 10.75
            },
            {
                "Name": "MONASTIR (Cite Erriadh)",
                "NameAr": "المنستير (حي الرياض)",
                "Value": "MONASTIR",
                "PostalCode": "5060",
                "Latitude": 35.7644,
                "Longitude": 10.8
            },
            {
                "Name": "OUERDANINE (Cite Ennouzha)",
                "NameAr": "الوردانين (حي النزهة)",
                "Value": "OUERDANINE",
                "PostalCode": "5010",
                "Latitude": 35.6764,
                "Longitude": 10.7281
            },
            {
                "Name": "JEMMAL (Jemmal Kheireddine)",
                "NameAr": "جمال (جمال خير الدين)",
                "Value": "JEMMAL",
                "PostalCode": "5030",
                "Latitude": 35.6,
                "Longitude": 10.75
            },
            {
                "Name": "MONASTIR (Cite Essaada)",
                "NameAr": "المنستير (حي السعادة)",
                "Value": "MONASTIR",
                "PostalCode": "5060",
                "Latitude": 35.7644,
                "Longitude": 10.8
            },
            {
                "Name": "OUERDANINE (Cite Mohamed Ali)",
                "NameAr": "الوردانين (حي محمد علي)",
                "Value": "OUERDANINE",
                "PostalCode": "5010",
                "Latitude": 35.6764,
                "Longitude": 10.7281
            },
            {
                "Name": "KSIBET EL MEDIOUNI (Cite 18 Janvier)",
                "NameAr": "قصيبة المديوني (حي 18 جانفي)",
                "Value": "KSIBET EL MEDIOUNI",
                "PostalCode": "5031",
                "Latitude": 35.6667,
                "Longitude": 10.8167
            },
            {
                "Name": "MONASTIR (Cite Essalem)",
                "NameAr": "المنستير (حي السلام)",
                "Value": "MONASTIR",
                "PostalCode": "5060",
                "Latitude": 35.7644,
                "Longitude": 10.8
            },
            {
                "Name": "OUERDANINE (Ouerdanine)",
                "NameAr": "الوردانين (الوردانين)",
                "Value": "OUERDANINE",
                "PostalCode": "5010",
                "Latitude": 35.6764,
                "Longitude": 10.7281
            },
            {
                "Name": "KSIBET EL MEDIOUNI (Cite Commerciale)",
                "NameAr": "قصيبة المديوني (الحي التجاري)",
                "Value": "KSIBET EL MEDIOUNI",
                "PostalCode": "5031",
                "Latitude": 35.6667,
                "Longitude": 10.8167
            },
            {
                "Name": "MONASTIR (Cite Sidi Nasser)",
                "NameAr": "المنستير (حي سيدي نصر)",
                "Value": "MONASTIR",
                "PostalCode": "5060",
                "Latitude": 35.7644,
                "Longitude": 10.8
            },
            {
                "Name": "MONASTIR (Khenis)",
                "NameAr": "المنستير (خنيس)",
                "Value": "MONASTIR",
                "PostalCode": "5011",
                "Latitude": 35.7306,
                "Longitude": 10.7997
            },
            {
                "Name": "KSIBET EL MEDIOUNI (Cite De La Liberte)",
                "NameAr": "قصيبة المديوني (حي الحرية)",
                "Value": "KSIBET EL MEDIOUNI",
                "PostalCode": "5031",
                "Latitude": 35.6667,
                "Longitude": 10.8167
            },
            {
                "Name": "MONASTIR (Cite Trabelsia)",
                "NameAr": "المنستير (حي الطرابلسية)",
                "Value": "MONASTIR",
                "PostalCode": "5060",
                "Latitude": 35.7644,
                "Longitude": 10.8
            },
            {
                "Name": "SAHLINE (Cite Echaabia Nlle)",
                "NameAr": "الساحلين (الحي الشعبي الجديدة)",
                "Value": "SAHLINE",
                "PostalCode": "5012",
                "Latitude": 35.7197,
                "Longitude": 10.7594
            },
            {
                "Name": "MONASTIR (Monastir Republique)",
                "NameAr": "المنستير (المنستير الجمهورية)",
                "Value": "MONASTIR",
                "PostalCode": "5060",
                "Latitude": 35.7644,
                "Longitude": 10.8
            },
            {
                "Name": "SAHLINE (Mootmar)",
                "NameAr": "الساحلين (المؤتمر)",
                "Value": "SAHLINE",
                "PostalCode": "5012",
                "Latitude": 35.7197,
                "Longitude": 10.7594
            },
            {
                "Name": "KSIBET EL MEDIOUNI (Cite Ennadhour 1)",
                "NameAr": "قصيبة المديوني (حي الناظور 1)",
                "Value": "KSIBET EL MEDIOUNI",
                "PostalCode": "5031",
                "Latitude": 35.6667,
                "Longitude": 10.8167
            }
        ]
    }
]